<?xml version="1.0" encoding="UTF-8"?>
<gpx version="1.1" creator="gen-sample-route.mjs"
     xmlns="http://www.topografix.com/GPX/1/1"
     xmlns:xsi="http://www.w3.org/2001/XMLSchema-instance"
     xsi:schemaLocation="http://www.topografix.com/GPX/1/1 http://www.topografix.com/GPX/1/1/gpx.xsd">
  <metadata>
    <name>Synthetic Sample Route</name>
    <desc>Deterministically generated synthetic cycling loop. Not based on any real route. Copyright-safe.</desc>
  </metadata>
  <trk>
    <name>Synthetic Loop</name>
    <trkseg>
      <trkpt lat="58.9499712" lon="15.2803643"><ele>90.8</ele></trkpt>
      <trkpt lat="58.9508378" lon="15.2802741"><ele>90.8</ele></trkpt>
      <trkpt lat="58.9517047" lon="15.2801753"><ele>90.8</ele></trkpt>
      <trkpt lat="58.9525716" lon="15.2800679"><ele>90.9</ele></trkpt>
      <trkpt lat="58.9534387" lon="15.2799520"><ele>90.9</ele></trkpt>
      <trkpt lat="58.9543057" lon="15.2798276"><ele>90.9</ele></trkpt>
      <trkpt lat="58.9551725" lon="15.2796948"><ele>90.9</ele></trkpt>
      <trkpt lat="58.9560391" lon="15.2795536"><ele>91.0</ele></trkpt>
      <trkpt lat="58.9569054" lon="15.2794041"><ele>91.0</ele></trkpt>
      <trkpt lat="58.9577712" lon="15.2792463"><ele>91.0</ele></trkpt>
      <trkpt lat="58.9586365" lon="15.2790803"><ele>91.1</ele></trkpt>
      <trkpt lat="58.9595011" lon="15.2789062"><ele>91.1</ele></trkpt>
      <trkpt lat="58.9603650" lon="15.2787239"><ele>91.2</ele></trkpt>
      <trkpt lat="58.9612281" lon="15.2785336"><ele>91.2</ele></trkpt>
      <trkpt lat="58.9620902" lon="15.2783353"><ele>91.2</ele></trkpt>
      <trkpt lat="58.9629513" lon="15.2781291"><ele>91.3</ele></trkpt>
      <trkpt lat="58.9638113" lon="15.2779149"><ele>91.3</ele></trkpt>
      <trkpt lat="58.9646700" lon="15.2776929"><ele>91.4</ele></trkpt>
      <trkpt lat="58.9655274" lon="15.2774631"><ele>91.4</ele></trkpt>
      <trkpt lat="58.9663834" lon="15.2772256"><ele>91.5</ele></trkpt>
      <trkpt lat="58.9672379" lon="15.2769804"><ele>91.5</ele></trkpt>
      <trkpt lat="58.9680908" lon="15.2767275"><ele>91.6</ele></trkpt>
      <trkpt lat="58.9689420" lon="15.2764671"><ele>91.6</ele></trkpt>
      <trkpt lat="58.9697914" lon="15.2761991"><ele>91.7</ele></trkpt>
      <trkpt lat="58.9706390" lon="15.2759236"><ele>91.7</ele></trkpt>
      <trkpt lat="58.9714845" lon="15.2756407"><ele>91.8</ele></trkpt>
      <trkpt lat="58.9723281" lon="15.2753504"><ele>91.8</ele></trkpt>
      <trkpt lat="58.9731695" lon="15.2750528"><ele>91.9</ele></trkpt>
      <trkpt lat="58.9740086" lon="15.2747478"><ele>91.9</ele></trkpt>
      <trkpt lat="58.9748455" lon="15.2744356"><ele>92.0</ele></trkpt>
      <trkpt lat="58.9756800" lon="15.2741162"><ele>92.1</ele></trkpt>
      <trkpt lat="58.9765121" lon="15.2737896"><ele>92.1</ele></trkpt>
      <trkpt lat="58.9773416" lon="15.2734559"><ele>92.2</ele></trkpt>
      <trkpt lat="58.9781684" lon="15.2731152"><ele>92.3</ele></trkpt>
      <trkpt lat="58.9789926" lon="15.2727674"><ele>92.3</ele></trkpt>
      <trkpt lat="58.9798141" lon="15.2724126"><ele>92.4</ele></trkpt>
      <trkpt lat="58.9806327" lon="15.2720509"><ele>92.5</ele></trkpt>
      <trkpt lat="58.9814484" lon="15.2716823"><ele>92.6</ele></trkpt>
      <trkpt lat="58.9822611" lon="15.2713069"><ele>92.7</ele></trkpt>
      <trkpt lat="58.9830708" lon="15.2709246"><ele>92.7</ele></trkpt>
      <trkpt lat="58.9838774" lon="15.2705355"><ele>92.8</ele></trkpt>
      <trkpt lat="58.9846808" lon="15.2701397"><ele>92.9</ele></trkpt>
      <trkpt lat="58.9854810" lon="15.2697372"><ele>93.0</ele></trkpt>
      <trkpt lat="58.9862779" lon="15.2693280"><ele>93.1</ele></trkpt>
      <trkpt lat="58.9870716" lon="15.2689122"><ele>93.2</ele></trkpt>
      <trkpt lat="58.9878618" lon="15.2684899"><ele>93.3</ele></trkpt>
      <trkpt lat="58.9886486" lon="15.2680609"><ele>93.4</ele></trkpt>
      <trkpt lat="58.9894319" lon="15.2676254"><ele>93.5</ele></trkpt>
      <trkpt lat="58.9902117" lon="15.2671835"><ele>93.6</ele></trkpt>
      <trkpt lat="58.9909879" lon="15.2667350"><ele>93.7</ele></trkpt>
      <trkpt lat="58.9917605" lon="15.2662802"><ele>93.8</ele></trkpt>
      <trkpt lat="58.9925295" lon="15.2658189"><ele>93.9</ele></trkpt>
      <trkpt lat="58.9932947" lon="15.2653513"><ele>94.0</ele></trkpt>
      <trkpt lat="58.9940563" lon="15.2648774"><ele>94.2</ele></trkpt>
      <trkpt lat="58.9948141" lon="15.2643971"><ele>94.3</ele></trkpt>
      <trkpt lat="58.9955681" lon="15.2639105"><ele>94.4</ele></trkpt>
      <trkpt lat="58.9963183" lon="15.2634177"><ele>94.5</ele></trkpt>
      <trkpt lat="58.9970646" lon="15.2629187"><ele>94.7</ele></trkpt>
      <trkpt lat="58.9978071" lon="15.2624135"><ele>94.8</ele></trkpt>
      <trkpt lat="58.9985458" lon="15.2619020"><ele>95.0</ele></trkpt>
      <trkpt lat="58.9992805" lon="15.2613845"><ele>95.1</ele></trkpt>
      <trkpt lat="59.0000113" lon="15.2608607"><ele>95.2</ele></trkpt>
      <trkpt lat="59.0007382" lon="15.2603309"><ele>95.4</ele></trkpt>
      <trkpt lat="59.0014611" lon="15.2597950"><ele>95.6</ele></trkpt>
      <trkpt lat="59.0021801" lon="15.2592530"><ele>95.7</ele></trkpt>
      <trkpt lat="59.0028951" lon="15.2587050"><ele>95.9</ele></trkpt>
      <trkpt lat="59.0036062" lon="15.2581509"><ele>96.0</ele></trkpt>
      <trkpt lat="59.0043133" lon="15.2575908"><ele>96.2</ele></trkpt>
      <trkpt lat="59.0050164" lon="15.2570247"><ele>96.4</ele></trkpt>
      <trkpt lat="59.0057155" lon="15.2564526"><ele>96.6</ele></trkpt>
      <trkpt lat="59.0064107" lon="15.2558745"><ele>96.8</ele></trkpt>
      <trkpt lat="59.0071019" lon="15.2552905"><ele>96.9</ele></trkpt>
      <trkpt lat="59.0077892" lon="15.2547005"><ele>97.1</ele></trkpt>
      <trkpt lat="59.0084725" lon="15.2541046"><ele>97.3</ele></trkpt>
      <trkpt lat="59.0091519" lon="15.2535028"><ele>97.5</ele></trkpt>
      <trkpt lat="59.0098274" lon="15.2528951"><ele>97.7</ele></trkpt>
      <trkpt lat="59.0104989" lon="15.2522815"><ele>98.0</ele></trkpt>
      <trkpt lat="59.0111666" lon="15.2516620"><ele>98.2</ele></trkpt>
      <trkpt lat="59.0118303" lon="15.2510367"><ele>98.4</ele></trkpt>
      <trkpt lat="59.0124902" lon="15.2504055"><ele>98.6</ele></trkpt>
      <trkpt lat="59.0131463" lon="15.2497684"><ele>98.9</ele></trkpt>
      <trkpt lat="59.0137986" lon="15.2491255"><ele>99.1</ele></trkpt>
      <trkpt lat="59.0144470" lon="15.2484767"><ele>99.4</ele></trkpt>
      <trkpt lat="59.0150917" lon="15.2478221"><ele>99.6</ele></trkpt>
      <trkpt lat="59.0157326" lon="15.2471617"><ele>99.9</ele></trkpt>
      <trkpt lat="59.0163698" lon="15.2464954"><ele>100.1</ele></trkpt>
      <trkpt lat="59.0170033" lon="15.2458234"><ele>100.4</ele></trkpt>
      <trkpt lat="59.0176332" lon="15.2451455"><ele>100.7</ele></trkpt>
      <trkpt lat="59.0182594" lon="15.2444618"><ele>100.9</ele></trkpt>
      <trkpt lat="59.0188820" lon="15.2437724"><ele>101.2</ele></trkpt>
      <trkpt lat="59.0195010" lon="15.2430771"><ele>101.5</ele></trkpt>
      <trkpt lat="59.0201165" lon="15.2423760"><ele>101.8</ele></trkpt>
      <trkpt lat="59.0207285" lon="15.2416692"><ele>102.1</ele></trkpt>
      <trkpt lat="59.0213370" lon="15.2409565"><ele>102.5</ele></trkpt>
      <trkpt lat="59.0219420" lon="15.2402381"><ele>102.8</ele></trkpt>
      <trkpt lat="59.0225436" lon="15.2395139"><ele>103.1</ele></trkpt>
      <trkpt lat="59.0231419" lon="15.2387839"><ele>103.4</ele></trkpt>
      <trkpt lat="59.0237368" lon="15.2380481"><ele>103.8</ele></trkpt>
      <trkpt lat="59.0243284" lon="15.2373066"><ele>104.1</ele></trkpt>
      <trkpt lat="59.0249167" lon="15.2365593"><ele>104.5</ele></trkpt>
      <trkpt lat="59.0255018" lon="15.2358062"><ele>104.9</ele></trkpt>
      <trkpt lat="59.0260837" lon="15.2350473"><ele>105.2</ele></trkpt>
      <trkpt lat="59.0266624" lon="15.2342826"><ele>105.6</ele></trkpt>
      <trkpt lat="59.0272380" lon="15.2335122"><ele>106.0</ele></trkpt>
      <trkpt lat="59.0278105" lon="15.2327360"><ele>106.4</ele></trkpt>
      <trkpt lat="59.0283799" lon="15.2319541"><ele>106.8</ele></trkpt>
      <trkpt lat="59.0289463" lon="15.2311664"><ele>107.2</ele></trkpt>
      <trkpt lat="59.0295097" lon="15.2303729"><ele>107.6</ele></trkpt>
      <trkpt lat="59.0300702" lon="15.2295736"><ele>108.1</ele></trkpt>
      <trkpt lat="59.0306276" lon="15.2287686"><ele>108.5</ele></trkpt>
      <trkpt lat="59.0311822" lon="15.2279578"><ele>109.0</ele></trkpt>
      <trkpt lat="59.0317340" lon="15.2271413"><ele>109.4</ele></trkpt>
      <trkpt lat="59.0322828" lon="15.2263190"><ele>109.9</ele></trkpt>
      <trkpt lat="59.0328289" lon="15.2254909"><ele>110.4</ele></trkpt>
      <trkpt lat="59.0333722" lon="15.2246571"><ele>110.9</ele></trkpt>
      <trkpt lat="59.0339127" lon="15.2238175"><ele>111.3</ele></trkpt>
      <trkpt lat="59.0344504" lon="15.2229722"><ele>111.9</ele></trkpt>
      <trkpt lat="59.0349855" lon="15.2221212"><ele>112.4</ele></trkpt>
      <trkpt lat="59.0355179" lon="15.2212643"><ele>112.9</ele></trkpt>
      <trkpt lat="59.0360476" lon="15.2204018"><ele>113.4</ele></trkpt>
      <trkpt lat="59.0365747" lon="15.2195335"><ele>114.0</ele></trkpt>
      <trkpt lat="59.0370991" lon="15.2186595"><ele>114.5</ele></trkpt>
      <trkpt lat="59.0376209" lon="15.2177798"><ele>115.1</ele></trkpt>
      <trkpt lat="59.0381402" lon="15.2168943"><ele>115.7</ele></trkpt>
      <trkpt lat="59.0386568" lon="15.2160031"><ele>116.3</ele></trkpt>
      <trkpt lat="59.0391709" lon="15.2151063"><ele>116.9</ele></trkpt>
      <trkpt lat="59.0396824" lon="15.2142037"><ele>117.5</ele></trkpt>
      <trkpt lat="59.0401914" lon="15.2132954"><ele>118.1</ele></trkpt>
      <trkpt lat="59.0406979" lon="15.2123815"><ele>118.8</ele></trkpt>
      <trkpt lat="59.0412018" lon="15.2114619"><ele>119.4</ele></trkpt>
      <trkpt lat="59.0417032" lon="15.2105366"><ele>120.1</ele></trkpt>
      <trkpt lat="59.0422020" lon="15.2096056"><ele>120.7</ele></trkpt>
      <trkpt lat="59.0426984" lon="15.2086691"><ele>121.4</ele></trkpt>
      <trkpt lat="59.0431922" lon="15.2077269"><ele>122.1</ele></trkpt>
      <trkpt lat="59.0436834" lon="15.2067790"><ele>122.8</ele></trkpt>
      <trkpt lat="59.0441721" lon="15.2058256"><ele>123.6</ele></trkpt>
      <trkpt lat="59.0446583" lon="15.2048666"><ele>124.3</ele></trkpt>
      <trkpt lat="59.0451419" lon="15.2039020"><ele>125.1</ele></trkpt>
      <trkpt lat="59.0456230" lon="15.2029318"><ele>125.8</ele></trkpt>
      <trkpt lat="59.0461015" lon="15.2019561"><ele>126.6</ele></trkpt>
      <trkpt lat="59.0465773" lon="15.2009748"><ele>127.4</ele></trkpt>
      <trkpt lat="59.0470506" lon="15.1999881"><ele>128.2</ele></trkpt>
      <trkpt lat="59.0475212" lon="15.1989959"><ele>129.0</ele></trkpt>
      <trkpt lat="59.0479891" lon="15.1979982"><ele>129.8</ele></trkpt>
      <trkpt lat="59.0484543" lon="15.1969950"><ele>130.7</ele></trkpt>
      <trkpt lat="59.0489169" lon="15.1959864"><ele>131.6</ele></trkpt>
      <trkpt lat="59.0493767" lon="15.1949725"><ele>132.4</ele></trkpt>
      <trkpt lat="59.0498337" lon="15.1939531"><ele>133.3</ele></trkpt>
      <trkpt lat="59.0502879" lon="15.1929284"><ele>134.2</ele></trkpt>
      <trkpt lat="59.0507392" lon="15.1918983"><ele>135.1</ele></trkpt>
      <trkpt lat="59.0511877" lon="15.1908630"><ele>136.1</ele></trkpt>
      <trkpt lat="59.0516333" lon="15.1898224"><ele>137.0</ele></trkpt>
      <trkpt lat="59.0520758" lon="15.1887765"><ele>138.0</ele></trkpt>
      <trkpt lat="59.0525154" lon="15.1877254"><ele>139.0</ele></trkpt>
      <trkpt lat="59.0529519" lon="15.1866691"><ele>140.0</ele></trkpt>
      <trkpt lat="59.0533854" lon="15.1856077"><ele>141.0</ele></trkpt>
      <trkpt lat="59.0538156" lon="15.1845411"><ele>142.0</ele></trkpt>
      <trkpt lat="59.0542427" lon="15.1834695"><ele>143.1</ele></trkpt>
      <trkpt lat="59.0546665" lon="15.1823928"><ele>144.1</ele></trkpt>
      <trkpt lat="59.0550870" lon="15.1813111"><ele>145.2</ele></trkpt>
      <trkpt lat="59.0555041" lon="15.1802244"><ele>146.3</ele></trkpt>
      <trkpt lat="59.0559178" lon="15.1791328"><ele>147.4</ele></trkpt>
      <trkpt lat="59.0563280" lon="15.1780362"><ele>148.6</ele></trkpt>
      <trkpt lat="59.0567346" lon="15.1769348"><ele>149.7</ele></trkpt>
      <trkpt lat="59.0571376" lon="15.1758286"><ele>150.9</ele></trkpt>
      <trkpt lat="59.0575369" lon="15.1747176"><ele>152.1</ele></trkpt>
      <trkpt lat="59.0579325" lon="15.1736019"><ele>153.3</ele></trkpt>
      <trkpt lat="59.0583243" lon="15.1724815"><ele>154.5</ele></trkpt>
      <trkpt lat="59.0587122" lon="15.1713564"><ele>155.7</ele></trkpt>
      <trkpt lat="59.0590961" lon="15.1702268"><ele>157.0</ele></trkpt>
      <trkpt lat="59.0594759" lon="15.1690926"><ele>158.2</ele></trkpt>
      <trkpt lat="59.0598517" lon="15.1679539"><ele>159.5</ele></trkpt>
      <trkpt lat="59.0602233" lon="15.1668107"><ele>160.8</ele></trkpt>
      <trkpt lat="59.0605906" lon="15.1656632"><ele>162.2</ele></trkpt>
      <trkpt lat="59.0609535" lon="15.1645113"><ele>163.5</ele></trkpt>
      <trkpt lat="59.0613121" lon="15.1633551"><ele>164.9</ele></trkpt>
      <trkpt lat="59.0616662" lon="15.1621946"><ele>166.3</ele></trkpt>
      <trkpt lat="59.0620156" lon="15.1610300"><ele>167.7</ele></trkpt>
      <trkpt lat="59.0623605" lon="15.1598613"><ele>169.1</ele></trkpt>
      <trkpt lat="59.0627005" lon="15.1586885"><ele>170.6</ele></trkpt>
      <trkpt lat="59.0630358" lon="15.1575117"><ele>172.0</ele></trkpt>
      <trkpt lat="59.0633662" lon="15.1563309"><ele>173.5</ele></trkpt>
      <trkpt lat="59.0636915" lon="15.1551462"><ele>175.0</ele></trkpt>
      <trkpt lat="59.0640118" lon="15.1539577"><ele>176.5</ele></trkpt>
      <trkpt lat="59.0643270" lon="15.1527655"><ele>178.1</ele></trkpt>
      <trkpt lat="59.0646369" lon="15.1515695"><ele>179.6</ele></trkpt>
      <trkpt lat="59.0649415" lon="15.1503699"><ele>181.2</ele></trkpt>
      <trkpt lat="59.0652406" lon="15.1491667"><ele>182.8</ele></trkpt>
      <trkpt lat="59.0655343" lon="15.1479600"><ele>184.5</ele></trkpt>
      <trkpt lat="59.0658224" lon="15.1467499"><ele>186.1</ele></trkpt>
      <trkpt lat="59.0661049" lon="15.1455364"><ele>187.8</ele></trkpt>
      <trkpt lat="59.0663816" lon="15.1443196"><ele>189.5</ele></trkpt>
      <trkpt lat="59.0666524" lon="15.1430996"><ele>191.2</ele></trkpt>
      <trkpt lat="59.0669174" lon="15.1418764"><ele>192.9</ele></trkpt>
      <trkpt lat="59.0671764" lon="15.1406501"><ele>194.6</ele></trkpt>
      <trkpt lat="59.0674293" lon="15.1394208"><ele>196.4</ele></trkpt>
      <trkpt lat="59.0676760" lon="15.1381885"><ele>198.2</ele></trkpt>
      <trkpt lat="59.0679166" lon="15.1369534"><ele>200.0</ele></trkpt>
      <trkpt lat="59.0681508" lon="15.1357155"><ele>201.9</ele></trkpt>
      <trkpt lat="59.0683786" lon="15.1344748"><ele>203.7</ele></trkpt>
      <trkpt lat="59.0685999" lon="15.1332315"><ele>205.6</ele></trkpt>
      <trkpt lat="59.0688147" lon="15.1319857"><ele>207.5</ele></trkpt>
      <trkpt lat="59.0690229" lon="15.1307373"><ele>209.4</ele></trkpt>
      <trkpt lat="59.0692244" lon="15.1294865"><ele>211.4</ele></trkpt>
      <trkpt lat="59.0694191" lon="15.1282334"><ele>213.3</ele></trkpt>
      <trkpt lat="59.0696070" lon="15.1269780"><ele>215.3</ele></trkpt>
      <trkpt lat="59.0697880" lon="15.1257205"><ele>217.3</ele></trkpt>
      <trkpt lat="59.0699620" lon="15.1244608"><ele>219.3</ele></trkpt>
      <trkpt lat="59.0701290" lon="15.1231992"><ele>221.4</ele></trkpt>
      <trkpt lat="59.0702889" lon="15.1219356"><ele>223.4</ele></trkpt>
      <trkpt lat="59.0704416" lon="15.1206701"><ele>225.5</ele></trkpt>
      <trkpt lat="59.0705870" lon="15.1194029"><ele>227.7</ele></trkpt>
      <trkpt lat="59.0707252" lon="15.1181340"><ele>229.8</ele></trkpt>
      <trkpt lat="59.0708560" lon="15.1168634"><ele>231.9</ele></trkpt>
      <trkpt lat="59.0709795" lon="15.1155914"><ele>234.1</ele></trkpt>
      <trkpt lat="59.0710955" lon="15.1143179"><ele>236.3</ele></trkpt>
      <trkpt lat="59.0712039" lon="15.1130431"><ele>238.5</ele></trkpt>
      <trkpt lat="59.0713048" lon="15.1117670"><ele>240.8</ele></trkpt>
      <trkpt lat="59.0713981" lon="15.1104897"><ele>243.0</ele></trkpt>
      <trkpt lat="59.0714838" lon="15.1092113"><ele>245.3</ele></trkpt>
      <trkpt lat="59.0715618" lon="15.1079319"><ele>247.6</ele></trkpt>
      <trkpt lat="59.0716320" lon="15.1066515"><ele>249.9</ele></trkpt>
      <trkpt lat="59.0716945" lon="15.1053703"><ele>252.3</ele></trkpt>
      <trkpt lat="59.0717492" lon="15.1040884"><ele>254.7</ele></trkpt>
      <trkpt lat="59.0717960" lon="15.1028058"><ele>257.0</ele></trkpt>
      <trkpt lat="59.0718350" lon="15.1015226"><ele>259.4</ele></trkpt>
      <trkpt lat="59.0718661" lon="15.1002389"><ele>261.9</ele></trkpt>
      <trkpt lat="59.0718892" lon="15.0989548"><ele>264.3</ele></trkpt>
      <trkpt lat="59.0719044" lon="15.0976703"><ele>266.8</ele></trkpt>
      <trkpt lat="59.0719117" lon="15.0963856"><ele>269.3</ele></trkpt>
      <trkpt lat="59.0719110" lon="15.0951008"><ele>271.8</ele></trkpt>
      <trkpt lat="59.0719022" lon="15.0938159"><ele>274.3</ele></trkpt>
      <trkpt lat="59.0718855" lon="15.0925310"><ele>276.8</ele></trkpt>
      <trkpt lat="59.0718608" lon="15.0912462"><ele>279.4</ele></trkpt>
      <trkpt lat="59.0718280" lon="15.0899617"><ele>282.0</ele></trkpt>
      <trkpt lat="59.0717872" lon="15.0886773"><ele>284.6</ele></trkpt>
      <trkpt lat="59.0717384" lon="15.0873934"><ele>287.2</ele></trkpt>
      <trkpt lat="59.0716815" lon="15.0861099"><ele>289.8</ele></trkpt>
      <trkpt lat="59.0716167" lon="15.0848269"><ele>292.5</ele></trkpt>
      <trkpt lat="59.0715438" lon="15.0835446"><ele>295.2</ele></trkpt>
      <trkpt lat="59.0714629" lon="15.0822629"><ele>297.9</ele></trkpt>
      <trkpt lat="59.0713740" lon="15.0809820"><ele>300.6</ele></trkpt>
      <trkpt lat="59.0712771" lon="15.0797020"><ele>303.3</ele></trkpt>
      <trkpt lat="59.0711723" lon="15.0784230"><ele>306.0</ele></trkpt>
      <trkpt lat="59.0710595" lon="15.0771450"><ele>308.8</ele></trkpt>
      <trkpt lat="59.0709388" lon="15.0758681"><ele>311.6</ele></trkpt>
      <trkpt lat="59.0708102" lon="15.0745925"><ele>314.4</ele></trkpt>
      <trkpt lat="59.0706738" lon="15.0733181"><ele>317.2</ele></trkpt>
      <trkpt lat="59.0705295" lon="15.0720451"><ele>320.0</ele></trkpt>
      <trkpt lat="59.0703774" lon="15.0707735"><ele>322.8</ele></trkpt>
      <trkpt lat="59.0702175" lon="15.0695035"><ele>325.7</ele></trkpt>
      <trkpt lat="59.0700499" lon="15.0682351"><ele>328.6</ele></trkpt>
      <trkpt lat="59.0698746" lon="15.0669684"><ele>331.4</ele></trkpt>
      <trkpt lat="59.0696916" lon="15.0657035"><ele>334.3</ele></trkpt>
      <trkpt lat="59.0695011" lon="15.0644404"><ele>337.2</ele></trkpt>
      <trkpt lat="59.0693030" lon="15.0631792"><ele>340.2</ele></trkpt>
      <trkpt lat="59.0690973" lon="15.0619201"><ele>343.1</ele></trkpt>
      <trkpt lat="59.0688843" lon="15.0606631"><ele>346.0</ele></trkpt>
      <trkpt lat="59.0686638" lon="15.0594082"><ele>349.0</ele></trkpt>
      <trkpt lat="59.0684359" lon="15.0581556"><ele>352.0</ele></trkpt>
      <trkpt lat="59.0682008" lon="15.0569053"><ele>355.0</ele></trkpt>
      <trkpt lat="59.0679584" lon="15.0556573"><ele>358.0</ele></trkpt>
      <trkpt lat="59.0677089" lon="15.0544119"><ele>361.0</ele></trkpt>
      <trkpt lat="59.0674523" lon="15.0531690"><ele>364.0</ele></trkpt>
      <trkpt lat="59.0671886" lon="15.0519287"><ele>367.0</ele></trkpt>
      <trkpt lat="59.0669179" lon="15.0506911"><ele>370.0</ele></trkpt>
      <trkpt lat="59.0666404" lon="15.0494563"><ele>373.1</ele></trkpt>
      <trkpt lat="59.0663559" lon="15.0482243"><ele>376.1</ele></trkpt>
      <trkpt lat="59.0660648" lon="15.0469952"><ele>379.2</ele></trkpt>
      <trkpt lat="59.0657669" lon="15.0457691"><ele>382.2</ele></trkpt>
      <trkpt lat="59.0654624" lon="15.0445460"><ele>385.3</ele></trkpt>
      <trkpt lat="59.0651514" lon="15.0433261"><ele>388.4</ele></trkpt>
      <trkpt lat="59.0648339" lon="15.0421093"><ele>391.5</ele></trkpt>
      <trkpt lat="59.0645100" lon="15.0408958"><ele>394.5</ele></trkpt>
      <trkpt lat="59.0641797" lon="15.0396856"><ele>397.6</ele></trkpt>
      <trkpt lat="59.0638433" lon="15.0384788"><ele>400.0</ele></trkpt>
      <trkpt lat="59.0635007" lon="15.0372754"><ele>400.0</ele></trkpt>
      <trkpt lat="59.0631520" lon="15.0360755"><ele>400.0</ele></trkpt>
      <trkpt lat="59.0627974" lon="15.0348792"><ele>400.0</ele></trkpt>
      <trkpt lat="59.0624368" lon="15.0336866"><ele>400.0</ele></trkpt>
      <trkpt lat="59.0620704" lon="15.0324976"><ele>400.0</ele></trkpt>
      <trkpt lat="59.0616983" lon="15.0313124"><ele>400.0</ele></trkpt>
      <trkpt lat="59.0613205" lon="15.0301311"><ele>400.0</ele></trkpt>
      <trkpt lat="59.0609371" lon="15.0289536"><ele>400.0</ele></trkpt>
      <trkpt lat="59.0605483" lon="15.0277800"><ele>400.0</ele></trkpt>
      <trkpt lat="59.0601541" lon="15.0266105"><ele>400.0</ele></trkpt>
      <trkpt lat="59.0597545" lon="15.0254450"><ele>400.0</ele></trkpt>
      <trkpt lat="59.0593497" lon="15.0242836"><ele>400.0</ele></trkpt>
      <trkpt lat="59.0589398" lon="15.0231264"><ele>400.0</ele></trkpt>
      <trkpt lat="59.0585248" lon="15.0219734"><ele>400.0</ele></trkpt>
      <trkpt lat="59.0581048" lon="15.0208247"><ele>400.0</ele></trkpt>
      <trkpt lat="59.0576800" lon="15.0196803"><ele>400.0</ele></trkpt>
      <trkpt lat="59.0572503" lon="15.0185403"><ele>400.0</ele></trkpt>
      <trkpt lat="59.0568159" lon="15.0174047"><ele>400.0</ele></trkpt>
      <trkpt lat="59.0563769" lon="15.0162737"><ele>400.0</ele></trkpt>
      <trkpt lat="59.0559333" lon="15.0151472"><ele>400.0</ele></trkpt>
      <trkpt lat="59.0554852" lon="15.0140252"><ele>400.0</ele></trkpt>
      <trkpt lat="59.0550328" lon="15.0129079"><ele>400.0</ele></trkpt>
      <trkpt lat="59.0545760" lon="15.0117954"><ele>400.0</ele></trkpt>
      <trkpt lat="59.0541150" lon="15.0106875"><ele>400.0</ele></trkpt>
      <trkpt lat="59.0536498" lon="15.0095844"><ele>400.0</ele></trkpt>
      <trkpt lat="59.0531806" lon="15.0084862"><ele>400.0</ele></trkpt>
      <trkpt lat="59.0527073" lon="15.0073928"><ele>400.0</ele></trkpt>
      <trkpt lat="59.0522302" lon="15.0063044"><ele>400.0</ele></trkpt>
      <trkpt lat="59.0517491" lon="15.0052209"><ele>400.0</ele></trkpt>
      <trkpt lat="59.0512643" lon="15.0041425"><ele>400.0</ele></trkpt>
      <trkpt lat="59.0507758" lon="15.0030691"><ele>400.0</ele></trkpt>
      <trkpt lat="59.0502837" lon="15.0020008"><ele>400.0</ele></trkpt>
      <trkpt lat="59.0497879" lon="15.0009377"><ele>400.0</ele></trkpt>
      <trkpt lat="59.0492887" lon="14.9998797"><ele>400.0</ele></trkpt>
      <trkpt lat="59.0487860" lon="14.9988270"><ele>400.0</ele></trkpt>
      <trkpt lat="59.0482800" lon="14.9977795"><ele>400.0</ele></trkpt>
      <trkpt lat="59.0477707" lon="14.9967374"><ele>400.0</ele></trkpt>
      <trkpt lat="59.0472581" lon="14.9957006"><ele>400.0</ele></trkpt>
      <trkpt lat="59.0467423" lon="14.9946692"><ele>400.0</ele></trkpt>
      <trkpt lat="59.0462233" lon="14.9936432"><ele>400.0</ele></trkpt>
      <trkpt lat="59.0457013" lon="14.9926227"><ele>400.0</ele></trkpt>
      <trkpt lat="59.0451763" lon="14.9916077"><ele>400.0</ele></trkpt>
      <trkpt lat="59.0446483" lon="14.9905982"><ele>400.0</ele></trkpt>
      <trkpt lat="59.0441174" lon="14.9895943"><ele>400.0</ele></trkpt>
      <trkpt lat="59.0435836" lon="14.9885960"><ele>400.0</ele></trkpt>
      <trkpt lat="59.0430469" lon="14.9876033"><ele>400.0</ele></trkpt>
      <trkpt lat="59.0425075" lon="14.9866164"><ele>400.0</ele></trkpt>
      <trkpt lat="59.0419654" lon="14.9856352"><ele>400.0</ele></trkpt>
      <trkpt lat="59.0414205" lon="14.9846597"><ele>400.0</ele></trkpt>
      <trkpt lat="59.0408730" lon="14.9836900"><ele>400.0</ele></trkpt>
      <trkpt lat="59.0403229" lon="14.9827261"><ele>400.0</ele></trkpt>
      <trkpt lat="59.0397701" lon="14.9817681"><ele>400.0</ele></trkpt>
      <trkpt lat="59.0392148" lon="14.9808160"><ele>400.0</ele></trkpt>
      <trkpt lat="59.0386570" lon="14.9798698"><ele>400.0</ele></trkpt>
      <trkpt lat="59.0380967" lon="14.9789296"><ele>400.0</ele></trkpt>
      <trkpt lat="59.0375339" lon="14.9779954"><ele>400.0</ele></trkpt>
      <trkpt lat="59.0369686" lon="14.9770672"><ele>400.0</ele></trkpt>
      <trkpt lat="59.0364009" lon="14.9761450"><ele>400.0</ele></trkpt>
      <trkpt lat="59.0358308" lon="14.9752289"><ele>400.0</ele></trkpt>
      <trkpt lat="59.0352583" lon="14.9743190"><ele>400.0</ele></trkpt>
      <trkpt lat="59.0346835" lon="14.9734152"><ele>400.0</ele></trkpt>
      <trkpt lat="59.0341063" lon="14.9725176"><ele>400.0</ele></trkpt>
      <trkpt lat="59.0335267" lon="14.9716262"><ele>400.0</ele></trkpt>
      <trkpt lat="59.0329448" lon="14.9707410"><ele>400.0</ele></trkpt>
      <trkpt lat="59.0323605" lon="14.9698621"><ele>400.0</ele></trkpt>
      <trkpt lat="59.0317740" lon="14.9689896"><ele>400.0</ele></trkpt>
      <trkpt lat="59.0311851" lon="14.9681233"><ele>400.0</ele></trkpt>
      <trkpt lat="59.0305939" lon="14.9672635"><ele>400.0</ele></trkpt>
      <trkpt lat="59.0300004" lon="14.9664100"><ele>400.0</ele></trkpt>
      <trkpt lat="59.0294046" lon="14.9655630"><ele>400.0</ele></trkpt>
      <trkpt lat="59.0288064" lon="14.9647224"><ele>400.0</ele></trkpt>
      <trkpt lat="59.0282060" lon="14.9638883"><ele>400.0</ele></trkpt>
      <trkpt lat="59.0276032" lon="14.9630607"><ele>400.0</ele></trkpt>
      <trkpt lat="59.0269981" lon="14.9622397"><ele>400.0</ele></trkpt>
      <trkpt lat="59.0263907" lon="14.9614253"><ele>400.0</ele></trkpt>
      <trkpt lat="59.0257809" lon="14.9606175"><ele>400.0</ele></trkpt>
      <trkpt lat="59.0251687" lon="14.9598163"><ele>400.0</ele></trkpt>
      <trkpt lat="59.0245542" lon="14.9590218"><ele>400.0</ele></trkpt>
      <trkpt lat="59.0239373" lon="14.9582340"><ele>400.0</ele></trkpt>
      <trkpt lat="59.0233179" lon="14.9574529"><ele>400.0</ele></trkpt>
      <trkpt lat="59.0226962" lon="14.9566786"><ele>400.0</ele></trkpt>
      <trkpt lat="59.0220720" lon="14.9559111"><ele>400.0</ele></trkpt>
      <trkpt lat="59.0214454" lon="14.9551505"><ele>400.0</ele></trkpt>
      <trkpt lat="59.0208163" lon="14.9543966"><ele>400.0</ele></trkpt>
      <trkpt lat="59.0201847" lon="14.9536497"><ele>400.0</ele></trkpt>
      <trkpt lat="59.0195506" lon="14.9529097"><ele>400.0</ele></trkpt>
      <trkpt lat="59.0189139" lon="14.9521766"><ele>400.0</ele></trkpt>
      <trkpt lat="59.0182747" lon="14.9514505"><ele>400.0</ele></trkpt>
      <trkpt lat="59.0176329" lon="14.9507314"><ele>400.0</ele></trkpt>
      <trkpt lat="59.0169885" lon="14.9500194"><ele>400.0</ele></trkpt>
      <trkpt lat="59.0163415" lon="14.9493145"><ele>400.0</ele></trkpt>
      <trkpt lat="59.0156918" lon="14.9486166"><ele>400.0</ele></trkpt>
      <trkpt lat="59.0150394" lon="14.9479259"><ele>400.0</ele></trkpt>
      <trkpt lat="59.0143844" lon="14.9472423"><ele>400.0</ele></trkpt>
      <trkpt lat="59.0137266" lon="14.9465660"><ele>400.0</ele></trkpt>
      <trkpt lat="59.0130660" lon="14.9458969"><ele>400.0</ele></trkpt>
      <trkpt lat="59.0124026" lon="14.9452351"><ele>400.0</ele></trkpt>
      <trkpt lat="59.0117364" lon="14.9445805"><ele>400.0</ele></trkpt>
      <trkpt lat="59.0110674" lon="14.9439333"><ele>400.0</ele></trkpt>
      <trkpt lat="59.0103955" lon="14.9432935"><ele>400.0</ele></trkpt>
      <trkpt lat="59.0097208" lon="14.9426610"><ele>400.0</ele></trkpt>
      <trkpt lat="59.0090431" lon="14.9420360"><ele>400.0</ele></trkpt>
      <trkpt lat="59.0083624" lon="14.9414184"><ele>400.0</ele></trkpt>
      <trkpt lat="59.0076788" lon="14.9408084"><ele>400.0</ele></trkpt>
      <trkpt lat="59.0069922" lon="14.9402058"><ele>400.0</ele></trkpt>
      <trkpt lat="59.0063026" lon="14.9396109"><ele>400.0</ele></trkpt>
      <trkpt lat="59.0056099" lon="14.9390235"><ele>400.0</ele></trkpt>
      <trkpt lat="59.0049142" lon="14.9384438"><ele>400.0</ele></trkpt>
      <trkpt lat="59.0042154" lon="14.9378717"><ele>400.0</ele></trkpt>
      <trkpt lat="59.0035135" lon="14.9373073"><ele>400.0</ele></trkpt>
      <trkpt lat="59.0028084" lon="14.9367507"><ele>400.0</ele></trkpt>
      <trkpt lat="59.0021002" lon="14.9362018"><ele>400.0</ele></trkpt>
      <trkpt lat="59.0013888" lon="14.9356607"><ele>400.0</ele></trkpt>
      <trkpt lat="59.0006743" lon="14.9351275"><ele>400.0</ele></trkpt>
      <trkpt lat="58.9999565" lon="14.9346021"><ele>400.0</ele></trkpt>
      <trkpt lat="58.9992356" lon="14.9340847"><ele>400.0</ele></trkpt>
      <trkpt lat="58.9985113" lon="14.9335751"><ele>400.0</ele></trkpt>
      <trkpt lat="58.9977839" lon="14.9330736"><ele>400.0</ele></trkpt>
      <trkpt lat="58.9970532" lon="14.9325800"><ele>400.0</ele></trkpt>
      <trkpt lat="58.9963192" lon="14.9320945"><ele>400.0</ele></trkpt>
      <trkpt lat="58.9955820" lon="14.9316171"><ele>400.0</ele></trkpt>
      <trkpt lat="58.9948415" lon="14.9311478"><ele>400.0</ele></trkpt>
      <trkpt lat="58.9940977" lon="14.9306867"><ele>400.0</ele></trkpt>
      <trkpt lat="58.9933506" lon="14.9302337"><ele>400.0</ele></trkpt>
      <trkpt lat="58.9926002" lon="14.9297889"><ele>400.0</ele></trkpt>
      <trkpt lat="58.9918465" lon="14.9293524"><ele>400.0</ele></trkpt>
      <trkpt lat="58.9910895" lon="14.9289242"><ele>400.0</ele></trkpt>
      <trkpt lat="58.9903293" lon="14.9285043"><ele>400.0</ele></trkpt>
      <trkpt lat="58.9895657" lon="14.9280928"><ele>400.0</ele></trkpt>
      <trkpt lat="58.9887989" lon="14.9276896"><ele>400.0</ele></trkpt>
      <trkpt lat="58.9880288" lon="14.9272949"><ele>400.0</ele></trkpt>
      <trkpt lat="58.9872555" lon="14.9269086"><ele>400.0</ele></trkpt>
      <trkpt lat="58.9864789" lon="14.9265309"><ele>400.0</ele></trkpt>
      <trkpt lat="58.9856990" lon="14.9261616"><ele>400.0</ele></trkpt>
      <trkpt lat="58.9849160" lon="14.9258009"><ele>400.0</ele></trkpt>
      <trkpt lat="58.9841297" lon="14.9254489"><ele>400.0</ele></trkpt>
      <trkpt lat="58.9833403" lon="14.9251054"><ele>400.0</ele></trkpt>
      <trkpt lat="58.9825477" lon="14.9247706"><ele>400.0</ele></trkpt>
      <trkpt lat="58.9817520" lon="14.9244445"><ele>400.0</ele></trkpt>
      <trkpt lat="58.9809531" lon="14.9241271"><ele>400.0</ele></trkpt>
      <trkpt lat="58.9801512" lon="14.9238185"><ele>400.0</ele></trkpt>
      <trkpt lat="58.9793463" lon="14.9235187"><ele>400.0</ele></trkpt>
      <trkpt lat="58.9785383" lon="14.9232277"><ele>400.0</ele></trkpt>
      <trkpt lat="58.9777273" lon="14.9229455"><ele>400.0</ele></trkpt>
      <trkpt lat="58.9769134" lon="14.9226723"><ele>400.0</ele></trkpt>
      <trkpt lat="58.9760966" lon="14.9224079"><ele>400.0</ele></trkpt>
      <trkpt lat="58.9752769" lon="14.9221525"><ele>400.0</ele></trkpt>
      <trkpt lat="58.9744544" lon="14.9219061"><ele>400.0</ele></trkpt>
      <trkpt lat="58.9736291" lon="14.9216687"><ele>400.0</ele></trkpt>
      <trkpt lat="58.9728011" lon="14.9214403"><ele>400.0</ele></trkpt>
      <trkpt lat="58.9719704" lon="14.9212210"><ele>400.0</ele></trkpt>
      <trkpt lat="58.9711370" lon="14.9210108"><ele>400.0</ele></trkpt>
      <trkpt lat="58.9703011" lon="14.9208097"><ele>400.0</ele></trkpt>
      <trkpt lat="58.9694626" lon="14.9206177"><ele>400.0</ele></trkpt>
      <trkpt lat="58.9686217" lon="14.9204349"><ele>400.0</ele></trkpt>
      <trkpt lat="58.9677783" lon="14.9202613"><ele>400.0</ele></trkpt>
      <trkpt lat="58.9669326" lon="14.9200970"><ele>400.0</ele></trkpt>
      <trkpt lat="58.9660846" lon="14.9199419"><ele>400.0</ele></trkpt>
      <trkpt lat="58.9652344" lon="14.9197960"><ele>400.0</ele></trkpt>
      <trkpt lat="58.9643820" lon="14.9196595"><ele>400.0</ele></trkpt>
      <trkpt lat="58.9635275" lon="14.9195323"><ele>400.0</ele></trkpt>
      <trkpt lat="58.9626709" lon="14.9194144"><ele>400.0</ele></trkpt>
      <trkpt lat="58.9618124" lon="14.9193059"><ele>400.0</ele></trkpt>
      <trkpt lat="58.9609521" lon="14.9192067"><ele>400.0</ele></trkpt>
      <trkpt lat="58.9600899" lon="14.9191170"><ele>400.0</ele></trkpt>
      <trkpt lat="58.9592259" lon="14.9190367"><ele>400.0</ele></trkpt>
      <trkpt lat="58.9583603" lon="14.9189659"><ele>400.0</ele></trkpt>
      <trkpt lat="58.9574931" lon="14.9189045"><ele>400.0</ele></trkpt>
      <trkpt lat="58.9566244" lon="14.9188525"><ele>400.0</ele></trkpt>
      <trkpt lat="58.9557543" lon="14.9188101"><ele>400.0</ele></trkpt>
      <trkpt lat="58.9548828" lon="14.9187772"><ele>400.0</ele></trkpt>
      <trkpt lat="58.9540101" lon="14.9187538"><ele>400.0</ele></trkpt>
      <trkpt lat="58.9531362" lon="14.9187399"><ele>400.0</ele></trkpt>
      <trkpt lat="58.9522612" lon="14.9187356"><ele>400.0</ele></trkpt>
      <trkpt lat="58.9513852" lon="14.9187409"><ele>400.0</ele></trkpt>
      <trkpt lat="58.9505082" lon="14.9187557"><ele>400.0</ele></trkpt>
      <trkpt lat="58.9496304" lon="14.9187801"><ele>400.0</ele></trkpt>
      <trkpt lat="58.9487519" lon="14.9188141"><ele>400.0</ele></trkpt>
      <trkpt lat="58.9478727" lon="14.9188577"><ele>400.0</ele></trkpt>
      <trkpt lat="58.9469929" lon="14.9189108"><ele>400.0</ele></trkpt>
      <trkpt lat="58.9461127" lon="14.9189736"><ele>400.0</ele></trkpt>
      <trkpt lat="58.9452321" lon="14.9190461"><ele>400.0</ele></trkpt>
      <trkpt lat="58.9443511" lon="14.9191281"><ele>400.0</ele></trkpt>
      <trkpt lat="58.9434700" lon="14.9192198"><ele>400.0</ele></trkpt>
      <trkpt lat="58.9425887" lon="14.9193210"><ele>400.0</ele></trkpt>
      <trkpt lat="58.9417075" lon="14.9194319"><ele>400.0</ele></trkpt>
      <trkpt lat="58.9408263" lon="14.9195525"><ele>400.0</ele></trkpt>
      <trkpt lat="58.9399452" lon="14.9196826"><ele>400.0</ele></trkpt>
      <trkpt lat="58.9390644" lon="14.9198224"><ele>400.0</ele></trkpt>
      <trkpt lat="58.9381840" lon="14.9199718"><ele>400.0</ele></trkpt>
      <trkpt lat="58.9373040" lon="14.9201308"><ele>400.0</ele></trkpt>
      <trkpt lat="58.9364245" lon="14.9202994"><ele>400.0</ele></trkpt>
      <trkpt lat="58.9355457" lon="14.9204776"><ele>400.0</ele></trkpt>
      <trkpt lat="58.9346675" lon="14.9206654"><ele>400.0</ele></trkpt>
      <trkpt lat="58.9337902" lon="14.9208627"><ele>400.0</ele></trkpt>
      <trkpt lat="58.9329138" lon="14.9210697"><ele>400.0</ele></trkpt>
      <trkpt lat="58.9320383" lon="14.9212861"><ele>400.0</ele></trkpt>
      <trkpt lat="58.9311640" lon="14.9215122"><ele>400.0</ele></trkpt>
      <trkpt lat="58.9302908" lon="14.9217478"><ele>400.0</ele></trkpt>
      <trkpt lat="58.9294188" lon="14.9219928"><ele>400.0</ele></trkpt>
      <trkpt lat="58.9285482" lon="14.9222474"><ele>400.0</ele></trkpt>
      <trkpt lat="58.9276790" lon="14.9225115"><ele>400.0</ele></trkpt>
      <trkpt lat="58.9268114" lon="14.9227850"><ele>400.0</ele></trkpt>
      <trkpt lat="58.9259453" lon="14.9230680"><ele>400.0</ele></trkpt>
      <trkpt lat="58.9250810" lon="14.9233604"><ele>400.0</ele></trkpt>
      <trkpt lat="58.9242184" lon="14.9236622"><ele>400.0</ele></trkpt>
      <trkpt lat="58.9233576" lon="14.9239733"><ele>400.0</ele></trkpt>
      <trkpt lat="58.9224988" lon="14.9242938"><ele>400.0</ele></trkpt>
      <trkpt lat="58.9216420" lon="14.9246237"><ele>400.0</ele></trkpt>
      <trkpt lat="58.9207873" lon="14.9249628"><ele>400.0</ele></trkpt>
      <trkpt lat="58.9199348" lon="14.9253112"><ele>400.0</ele></trkpt>
      <trkpt lat="58.9190845" lon="14.9256688"><ele>400.0</ele></trkpt>
      <trkpt lat="58.9182365" lon="14.9260357"><ele>400.0</ele></trkpt>
      <trkpt lat="58.9173909" lon="14.9264117"><ele>400.0</ele></trkpt>
      <trkpt lat="58.9165478" lon="14.9267969"><ele>400.0</ele></trkpt>
      <trkpt lat="58.9157072" lon="14.9271912"><ele>400.0</ele></trkpt>
      <trkpt lat="58.9148692" lon="14.9275945"><ele>400.0</ele></trkpt>
      <trkpt lat="58.9140339" lon="14.9280069"><ele>400.0</ele></trkpt>
      <trkpt lat="58.9132013" lon="14.9284283"><ele>400.0</ele></trkpt>
      <trkpt lat="58.9123715" lon="14.9288587"><ele>400.0</ele></trkpt>
      <trkpt lat="58.9115446" lon="14.9292980"><ele>400.0</ele></trkpt>
      <trkpt lat="58.9107206" lon="14.9297461"><ele>400.0</ele></trkpt>
      <trkpt lat="58.9098996" lon="14.9302031"><ele>400.0</ele></trkpt>
      <trkpt lat="58.9090816" lon="14.9306689"><ele>400.0</ele></trkpt>
      <trkpt lat="58.9082668" lon="14.9311435"><ele>400.0</ele></trkpt>
      <trkpt lat="58.9074550" lon="14.9316268"><ele>400.0</ele></trkpt>
      <trkpt lat="58.9066465" lon="14.9321187"><ele>400.0</ele></trkpt>
      <trkpt lat="58.9058412" lon="14.9326192"><ele>400.0</ele></trkpt>
      <trkpt lat="58.9050392" lon="14.9331283"><ele>400.0</ele></trkpt>
      <trkpt lat="58.9042406" lon="14.9336460"><ele>400.0</ele></trkpt>
      <trkpt lat="58.9034453" lon="14.9341721"><ele>400.0</ele></trkpt>
      <trkpt lat="58.9026535" lon="14.9347066"><ele>400.0</ele></trkpt>
      <trkpt lat="58.9018652" lon="14.9352494"><ele>400.0</ele></trkpt>
      <trkpt lat="58.9010803" lon="14.9358006"><ele>400.0</ele></trkpt>
      <trkpt lat="58.9002990" lon="14.9363601"><ele>399.4</ele></trkpt>
      <trkpt lat="58.8995213" lon="14.9369277"><ele>396.8</ele></trkpt>
      <trkpt lat="58.8987472" lon="14.9375035"><ele>394.3</ele></trkpt>
      <trkpt lat="58.8979768" lon="14.9380874"><ele>391.8</ele></trkpt>
      <trkpt lat="58.8972100" lon="14.9386793"><ele>389.3</ele></trkpt>
      <trkpt lat="58.8964470" lon="14.9392792"><ele>386.8</ele></trkpt>
      <trkpt lat="58.8956876" lon="14.9398870"><ele>384.3</ele></trkpt>
      <trkpt lat="58.8949321" lon="14.9405027"><ele>381.9</ele></trkpt>
      <trkpt lat="58.8941803" lon="14.9411262"><ele>379.5</ele></trkpt>
      <trkpt lat="58.8934323" lon="14.9417574"><ele>377.1</ele></trkpt>
      <trkpt lat="58.8926881" lon="14.9423963"><ele>374.7</ele></trkpt>
      <trkpt lat="58.8919478" lon="14.9430428"><ele>372.3</ele></trkpt>
      <trkpt lat="58.8912113" lon="14.9436968"><ele>370.0</ele></trkpt>
      <trkpt lat="58.8904787" lon="14.9443584"><ele>367.7</ele></trkpt>
      <trkpt lat="58.8897499" lon="14.9450273"><ele>365.4</ele></trkpt>
      <trkpt lat="58.8890251" lon="14.9457037"><ele>363.2</ele></trkpt>
      <trkpt lat="58.8883041" lon="14.9463873"><ele>361.0</ele></trkpt>
      <trkpt lat="58.8875871" lon="14.9470781"><ele>358.8</ele></trkpt>
      <trkpt lat="58.8868740" lon="14.9477761"><ele>356.6</ele></trkpt>
      <trkpt lat="58.8861648" lon="14.9484812"><ele>354.4</ele></trkpt>
      <trkpt lat="58.8854595" lon="14.9491934"><ele>352.3</ele></trkpt>
      <trkpt lat="58.8847582" lon="14.9499125"><ele>350.2</ele></trkpt>
      <trkpt lat="58.8840608" lon="14.9506384"><ele>348.1</ele></trkpt>
      <trkpt lat="58.8833673" lon="14.9513713"><ele>346.0</ele></trkpt>
      <trkpt lat="58.8826778" lon="14.9521108"><ele>344.0</ele></trkpt>
      <trkpt lat="58.8819922" lon="14.9528571"><ele>341.9</ele></trkpt>
      <trkpt lat="58.8813105" lon="14.9536100"><ele>340.0</ele></trkpt>
      <trkpt lat="58.8806327" lon="14.9543694"><ele>338.0</ele></trkpt>
      <trkpt lat="58.8799589" lon="14.9551353"><ele>336.0</ele></trkpt>
      <trkpt lat="58.8792890" lon="14.9559076"><ele>334.1</ele></trkpt>
      <trkpt lat="58.8786229" lon="14.9566863"><ele>332.2</ele></trkpt>
      <trkpt lat="58.8779608" lon="14.9574712"><ele>330.3</ele></trkpt>
      <trkpt lat="58.8773026" lon="14.9582623"><ele>328.5</ele></trkpt>
      <trkpt lat="58.8766482" lon="14.9590596"><ele>326.7</ele></trkpt>
      <trkpt lat="58.8759977" lon="14.9598629"><ele>324.8</ele></trkpt>
      <trkpt lat="58.8753511" lon="14.9606723"><ele>323.1</ele></trkpt>
      <trkpt lat="58.8747083" lon="14.9614875"><ele>321.3</ele></trkpt>
      <trkpt lat="58.8740694" lon="14.9623086"><ele>319.6</ele></trkpt>
      <trkpt lat="58.8734343" lon="14.9631355"><ele>317.8</ele></trkpt>
      <trkpt lat="58.8728030" lon="14.9639680"><ele>316.1</ele></trkpt>
      <trkpt lat="58.8721756" lon="14.9648063"><ele>314.5</ele></trkpt>
      <trkpt lat="58.8715519" lon="14.9656501"><ele>312.8</ele></trkpt>
      <trkpt lat="58.8709320" lon="14.9664994"><ele>311.2</ele></trkpt>
      <trkpt lat="58.8703159" lon="14.9673541"><ele>309.6</ele></trkpt>
      <trkpt lat="58.8697035" lon="14.9682142"><ele>308.0</ele></trkpt>
      <trkpt lat="58.8690949" lon="14.9690796"><ele>306.4</ele></trkpt>
      <trkpt lat="58.8684901" lon="14.9699502"><ele>304.8</ele></trkpt>
      <trkpt lat="58.8678889" lon="14.9708260"><ele>303.3</ele></trkpt>
      <trkpt lat="58.8672915" lon="14.9717069"><ele>301.8</ele></trkpt>
      <trkpt lat="58.8666978" lon="14.9725928"><ele>300.3</ele></trkpt>
      <trkpt lat="58.8661077" lon="14.9734837"><ele>298.8</ele></trkpt>
      <trkpt lat="58.8655214" lon="14.9743794"><ele>297.3</ele></trkpt>
      <trkpt lat="58.8649387" lon="14.9752800"><ele>295.9</ele></trkpt>
      <trkpt lat="58.8643597" lon="14.9761853"><ele>294.5</ele></trkpt>
      <trkpt lat="58.8637843" lon="14.9770954"><ele>293.1</ele></trkpt>
      <trkpt lat="58.8632126" lon="14.9780100"><ele>291.7</ele></trkpt>
      <trkpt lat="58.8626445" lon="14.9789293"><ele>290.3</ele></trkpt>
      <trkpt lat="58.8620800" lon="14.9798530"><ele>288.9</ele></trkpt>
      <trkpt lat="58.8615192" lon="14.9807812"><ele>287.6</ele></trkpt>
      <trkpt lat="58.8609620" lon="14.9817137"><ele>286.3</ele></trkpt>
      <trkpt lat="58.8604084" lon="14.9826506"><ele>284.9</ele></trkpt>
      <trkpt lat="58.8598585" lon="14.9835917"><ele>283.6</ele></trkpt>
      <trkpt lat="58.8593121" lon="14.9845370"><ele>282.4</ele></trkpt>
      <trkpt lat="58.8587694" lon="14.9854865"><ele>281.1</ele></trkpt>
      <trkpt lat="58.8582302" lon="14.9864400"><ele>279.8</ele></trkpt>
      <trkpt lat="58.8576947" lon="14.9873975"><ele>278.6</ele></trkpt>
      <trkpt lat="58.8571628" lon="14.9883590"><ele>277.3</ele></trkpt>
      <trkpt lat="58.8566345" lon="14.9893244"><ele>276.1</ele></trkpt>
      <trkpt lat="58.8561098" lon="14.9902937"><ele>274.9</ele></trkpt>
      <trkpt lat="58.8555888" lon="14.9912667"><ele>273.7</ele></trkpt>
      <trkpt lat="58.8550714" lon="14.9922435"><ele>272.5</ele></trkpt>
      <trkpt lat="58.8545576" lon="14.9932239"><ele>271.4</ele></trkpt>
      <trkpt lat="58.8540475" lon="14.9942080"><ele>270.2</ele></trkpt>
      <trkpt lat="58.8535411" lon="14.9951956"><ele>269.0</ele></trkpt>
      <trkpt lat="58.8530383" lon="14.9961868"><ele>267.9</ele></trkpt>
      <trkpt lat="58.8525393" lon="14.9971815"><ele>266.8</ele></trkpt>
      <trkpt lat="58.8520439" lon="14.9981795"><ele>265.6</ele></trkpt>
      <trkpt lat="58.8515522" lon="14.9991810"><ele>264.5</ele></trkpt>
      <trkpt lat="58.8510643" lon="15.0001858"><ele>263.4</ele></trkpt>
      <trkpt lat="58.8505802" lon="15.0011938"><ele>262.3</ele></trkpt>
      <trkpt lat="58.8500999" lon="15.0022051"><ele>261.2</ele></trkpt>
      <trkpt lat="58.8496233" lon="15.0032196"><ele>260.1</ele></trkpt>
      <trkpt lat="58.8491506" lon="15.0042372"><ele>259.1</ele></trkpt>
      <trkpt lat="58.8486817" lon="15.0052580"><ele>258.0</ele></trkpt>
      <trkpt lat="58.8482167" lon="15.0062818"><ele>256.9</ele></trkpt>
      <trkpt lat="58.8477557" lon="15.0073086"><ele>255.9</ele></trkpt>
      <trkpt lat="58.8472985" lon="15.0083383"><ele>254.8</ele></trkpt>
      <trkpt lat="58.8468454" lon="15.0093711"><ele>253.8</ele></trkpt>
      <trkpt lat="58.8463962" lon="15.0104067"><ele>252.8</ele></trkpt>
      <trkpt lat="58.8459511" lon="15.0114451"><ele>251.7</ele></trkpt>
      <trkpt lat="58.8455101" lon="15.0124864"><ele>250.7</ele></trkpt>
      <trkpt lat="58.8450731" lon="15.0135305"><ele>249.7</ele></trkpt>
      <trkpt lat="58.8446404" lon="15.0145773"><ele>248.7</ele></trkpt>
      <trkpt lat="58.8442118" lon="15.0156269"><ele>247.6</ele></trkpt>
      <trkpt lat="58.8437874" lon="15.0166791"><ele>246.6</ele></trkpt>
      <trkpt lat="58.8433674" lon="15.0177340"><ele>245.6</ele></trkpt>
      <trkpt lat="58.8429516" lon="15.0187915"><ele>244.6</ele></trkpt>
      <trkpt lat="58.8425402" lon="15.0198516"><ele>243.6</ele></trkpt>
      <trkpt lat="58.8421333" lon="15.0209142"><ele>242.6</ele></trkpt>
      <trkpt lat="58.8417308" lon="15.0219793"><ele>241.6</ele></trkpt>
      <trkpt lat="58.8413328" lon="15.0230470"><ele>240.6</ele></trkpt>
      <trkpt lat="58.8409393" lon="15.0241171"><ele>239.7</ele></trkpt>
      <trkpt lat="58.8405505" lon="15.0251897"><ele>238.7</ele></trkpt>
      <trkpt lat="58.8401663" lon="15.0262647"><ele>237.7</ele></trkpt>
      <trkpt lat="58.8397869" lon="15.0273421"><ele>236.7</ele></trkpt>
      <trkpt lat="58.8394122" lon="15.0284219"><ele>235.7</ele></trkpt>
      <trkpt lat="58.8390424" lon="15.0295040"><ele>234.8</ele></trkpt>
      <trkpt lat="58.8386774" lon="15.0305884"><ele>233.8</ele></trkpt>
      <trkpt lat="58.8383174" lon="15.0316751"><ele>232.8</ele></trkpt>
      <trkpt lat="58.8379623" lon="15.0327641"><ele>231.8</ele></trkpt>
      <trkpt lat="58.8376124" lon="15.0338554"><ele>230.9</ele></trkpt>
      <trkpt lat="58.8372675" lon="15.0349489"><ele>229.9</ele></trkpt>
      <trkpt lat="58.8369278" lon="15.0360446"><ele>228.9</ele></trkpt>
      <trkpt lat="58.8365934" lon="15.0371425"><ele>228.0</ele></trkpt>
      <trkpt lat="58.8362643" lon="15.0382426"><ele>227.0</ele></trkpt>
      <trkpt lat="58.8359405" lon="15.0393449"><ele>226.1</ele></trkpt>
      <trkpt lat="58.8356221" lon="15.0404493"><ele>225.1</ele></trkpt>
      <trkpt lat="58.8353093" lon="15.0415559"><ele>224.1</ele></trkpt>
      <trkpt lat="58.8350019" lon="15.0426646"><ele>223.2</ele></trkpt>
      <trkpt lat="58.8347002" lon="15.0437754"><ele>222.2</ele></trkpt>
      <trkpt lat="58.8344042" lon="15.0448882"><ele>221.2</ele></trkpt>
      <trkpt lat="58.8341138" lon="15.0460032"><ele>220.3</ele></trkpt>
      <trkpt lat="58.8338293" lon="15.0471202"><ele>219.3</ele></trkpt>
      <trkpt lat="58.8335507" lon="15.0482392"><ele>218.4</ele></trkpt>
      <trkpt lat="58.8332779" lon="15.0493603"><ele>217.4</ele></trkpt>
      <trkpt lat="58.8330112" lon="15.0504834"><ele>216.5</ele></trkpt>
      <trkpt lat="58.8327505" lon="15.0516086"><ele>215.5</ele></trkpt>
      <trkpt lat="58.8324959" lon="15.0527357"><ele>214.5</ele></trkpt>
      <trkpt lat="58.8322475" lon="15.0538648"><ele>213.6</ele></trkpt>
      <trkpt lat="58.8320054" lon="15.0549959"><ele>212.6</ele></trkpt>
      <trkpt lat="58.8317695" lon="15.0561290"><ele>211.7</ele></trkpt>
      <trkpt lat="58.8315399" lon="15.0572640"><ele>210.7</ele></trkpt>
      <trkpt lat="58.8313168" lon="15.0584009"><ele>209.8</ele></trkpt>
      <trkpt lat="58.8311002" lon="15.0595398"><ele>208.8</ele></trkpt>
      <trkpt lat="58.8308901" lon="15.0606807"><ele>207.8</ele></trkpt>
      <trkpt lat="58.8306866" lon="15.0618234"><ele>206.9</ele></trkpt>
      <trkpt lat="58.8304897" lon="15.0629680"><ele>205.9</ele></trkpt>
      <trkpt lat="58.8302996" lon="15.0641146"><ele>205.0</ele></trkpt>
      <trkpt lat="58.8301161" lon="15.0652630"><ele>204.0</ele></trkpt>
      <trkpt lat="58.8299395" lon="15.0664133"><ele>203.1</ele></trkpt>
      <trkpt lat="58.8297698" lon="15.0675655"><ele>202.1</ele></trkpt>
      <trkpt lat="58.8296070" lon="15.0687196"><ele>201.2</ele></trkpt>
      <trkpt lat="58.8294511" lon="15.0698754"><ele>200.2</ele></trkpt>
      <trkpt lat="58.8293022" lon="15.0710332"><ele>199.3</ele></trkpt>
      <trkpt lat="58.8291604" lon="15.0721927"><ele>198.3</ele></trkpt>
      <trkpt lat="58.8290257" lon="15.0733541"><ele>197.4</ele></trkpt>
      <trkpt lat="58.8288982" lon="15.0745173"><ele>196.4</ele></trkpt>
      <trkpt lat="58.8287778" lon="15.0756823"><ele>195.5</ele></trkpt>
      <trkpt lat="58.8286647" lon="15.0768490"><ele>194.5</ele></trkpt>
      <trkpt lat="58.8285588" lon="15.0780176"><ele>193.6</ele></trkpt>
      <trkpt lat="58.8284602" lon="15.0791879"><ele>192.6</ele></trkpt>
      <trkpt lat="58.8283690" lon="15.0803600"><ele>191.7</ele></trkpt>
      <trkpt lat="58.8282852" lon="15.0815338"><ele>190.7</ele></trkpt>
      <trkpt lat="58.8282087" lon="15.0827093"><ele>189.8</ele></trkpt>
      <trkpt lat="58.8281397" lon="15.0838865"><ele>188.9</ele></trkpt>
      <trkpt lat="58.8280782" lon="15.0850655"><ele>187.9</ele></trkpt>
      <trkpt lat="58.8280241" lon="15.0862461"><ele>187.0</ele></trkpt>
      <trkpt lat="58.8279776" lon="15.0874284"><ele>186.0</ele></trkpt>
      <trkpt lat="58.8279386" lon="15.0886123"><ele>185.1</ele></trkpt>
      <trkpt lat="58.8279072" lon="15.0897979"><ele>184.2</ele></trkpt>
      <trkpt lat="58.8278833" lon="15.0909851"><ele>183.2</ele></trkpt>
      <trkpt lat="58.8278670" lon="15.0921739"><ele>182.3</ele></trkpt>
      <trkpt lat="58.8278584" lon="15.0933644"><ele>181.4</ele></trkpt>
      <trkpt lat="58.8278573" lon="15.0945563"><ele>180.5</ele></trkpt>
      <trkpt lat="58.8278639" lon="15.0957498"><ele>179.5</ele></trkpt>
      <trkpt lat="58.8278781" lon="15.0969449"><ele>178.6</ele></trkpt>
      <trkpt lat="58.8278999" lon="15.0981415"><ele>177.7</ele></trkpt>
      <trkpt lat="58.8279294" lon="15.0993395"><ele>176.8</ele></trkpt>
      <trkpt lat="58.8279665" lon="15.1005390"><ele>175.9</ele></trkpt>
      <trkpt lat="58.8280113" lon="15.1017400"><ele>175.0</ele></trkpt>
      <trkpt lat="58.8280637" lon="15.1029423"><ele>174.1</ele></trkpt>
      <trkpt lat="58.8281237" lon="15.1041461"><ele>173.2</ele></trkpt>
      <trkpt lat="58.8281914" lon="15.1053512"><ele>172.2</ele></trkpt>
      <trkpt lat="58.8282666" lon="15.1065577"><ele>171.3</ele></trkpt>
      <trkpt lat="58.8283494" lon="15.1077654"><ele>170.5</ele></trkpt>
      <trkpt lat="58.8284399" lon="15.1089745"><ele>169.6</ele></trkpt>
      <trkpt lat="58.8285378" lon="15.1101848"><ele>168.7</ele></trkpt>
      <trkpt lat="58.8286433" lon="15.1113963"><ele>167.8</ele></trkpt>
      <trkpt lat="58.8287564" lon="15.1126090"><ele>166.9</ele></trkpt>
      <trkpt lat="58.8288769" lon="15.1138229"><ele>166.0</ele></trkpt>
      <trkpt lat="58.8290049" lon="15.1150378"><ele>165.1</ele></trkpt>
      <trkpt lat="58.8291403" lon="15.1162539"><ele>164.3</ele></trkpt>
      <trkpt lat="58.8292831" lon="15.1174710"><ele>163.4</ele></trkpt>
      <trkpt lat="58.8294333" lon="15.1186891"><ele>162.5</ele></trkpt>
      <trkpt lat="58.8295909" lon="15.1199082"><ele>161.7</ele></trkpt>
      <trkpt lat="58.8297557" lon="15.1211282"><ele>160.8</ele></trkpt>
      <trkpt lat="58.8299278" lon="15.1223491"><ele>160.0</ele></trkpt>
      <trkpt lat="58.8301071" lon="15.1235709"><ele>159.1</ele></trkpt>
      <trkpt lat="58.8302935" lon="15.1247934"><ele>158.3</ele></trkpt>
      <trkpt lat="58.8304871" lon="15.1260167"><ele>157.4</ele></trkpt>
      <trkpt lat="58.8306878" lon="15.1272407"><ele>156.6</ele></trkpt>
      <trkpt lat="58.8308955" lon="15.1284654"><ele>155.8</ele></trkpt>
      <trkpt lat="58.8311102" lon="15.1296907"><ele>155.0</ele></trkpt>
      <trkpt lat="58.8313318" lon="15.1309166"><ele>154.1</ele></trkpt>
      <trkpt lat="58.8315602" lon="15.1321430"><ele>153.3</ele></trkpt>
      <trkpt lat="58.8317955" lon="15.1333698"><ele>152.5</ele></trkpt>
      <trkpt lat="58.8320375" lon="15.1345970"><ele>151.7</ele></trkpt>
      <trkpt lat="58.8322863" lon="15.1358246"><ele>150.9</ele></trkpt>
      <trkpt lat="58.8325416" lon="15.1370525"><ele>150.1</ele></trkpt>
      <trkpt lat="58.8328035" lon="15.1382807"><ele>149.3</ele></trkpt>
      <trkpt lat="58.8330719" lon="15.1395090"><ele>148.5</ele></trkpt>
      <trkpt lat="58.8333468" lon="15.1407374"><ele>147.8</ele></trkpt>
      <trkpt lat="58.8336280" lon="15.1419659"><ele>147.0</ele></trkpt>
      <trkpt lat="58.8339155" lon="15.1431944"><ele>146.2</ele></trkpt>
      <trkpt lat="58.8342093" lon="15.1444228"><ele>145.4</ele></trkpt>
      <trkpt lat="58.8345092" lon="15.1456511"><ele>144.7</ele></trkpt>
      <trkpt lat="58.8348152" lon="15.1468791"><ele>143.9</ele></trkpt>
      <trkpt lat="58.8351272" lon="15.1481069"><ele>143.2</ele></trkpt>
      <trkpt lat="58.8354452" lon="15.1493344"><ele>142.4</ele></trkpt>
      <trkpt lat="58.8357690" lon="15.1505615"><ele>141.7</ele></trkpt>
      <trkpt lat="58.8360986" lon="15.1517881"><ele>141.0</ele></trkpt>
      <trkpt lat="58.8364340" lon="15.1530141"><ele>140.2</ele></trkpt>
      <trkpt lat="58.8367750" lon="15.1542395"><ele>139.5</ele></trkpt>
      <trkpt lat="58.8371215" lon="15.1554642"><ele>138.8</ele></trkpt>
      <trkpt lat="58.8374735" lon="15.1566882"><ele>138.1</ele></trkpt>
      <trkpt lat="58.8378310" lon="15.1579112"><ele>137.4</ele></trkpt>
      <trkpt lat="58.8381937" lon="15.1591334"><ele>136.7</ele></trkpt>
      <trkpt lat="58.8385618" lon="15.1603545"><ele>136.0</ele></trkpt>
      <trkpt lat="58.8389349" lon="15.1615745"><ele>135.3</ele></trkpt>
      <trkpt lat="58.8393132" lon="15.1627934"><ele>134.7</ele></trkpt>
      <trkpt lat="58.8396965" lon="15.1640110"><ele>134.0</ele></trkpt>
      <trkpt lat="58.8400847" lon="15.1652272"><ele>133.3</ele></trkpt>
      <trkpt lat="58.8404778" lon="15.1664421"><ele>132.7</ele></trkpt>
      <trkpt lat="58.8408757" lon="15.1676554"><ele>132.0</ele></trkpt>
      <trkpt lat="58.8412782" lon="15.1688671"><ele>131.4</ele></trkpt>
      <trkpt lat="58.8416854" lon="15.1700771"><ele>130.7</ele></trkpt>
      <trkpt lat="58.8420971" lon="15.1712853"><ele>130.1</ele></trkpt>
      <trkpt lat="58.8425133" lon="15.1724917"><ele>129.5</ele></trkpt>
      <trkpt lat="58.8429339" lon="15.1736960"><ele>128.8</ele></trkpt>
      <trkpt lat="58.8433588" lon="15.1748984"><ele>128.2</ele></trkpt>
      <trkpt lat="58.8437879" lon="15.1760986"><ele>127.6</ele></trkpt>
      <trkpt lat="58.8442212" lon="15.1772965"><ele>127.0</ele></trkpt>
      <trkpt lat="58.8446585" lon="15.1784921"><ele>126.4</ele></trkpt>
      <trkpt lat="58.8450999" lon="15.1796852"><ele>125.8</ele></trkpt>
      <trkpt lat="58.8455452" lon="15.1808759"><ele>125.2</ele></trkpt>
      <trkpt lat="58.8459944" lon="15.1820639"><ele>124.7</ele></trkpt>
      <trkpt lat="58.8464474" lon="15.1832491"><ele>124.1</ele></trkpt>
      <trkpt lat="58.8469041" lon="15.1844316"><ele>123.5</ele></trkpt>
      <trkpt lat="58.8473645" lon="15.1856111"><ele>123.0</ele></trkpt>
      <trkpt lat="58.8478285" lon="15.1867876"><ele>122.4</ele></trkpt>
      <trkpt lat="58.8482960" lon="15.1879610"><ele>121.9</ele></trkpt>
      <trkpt lat="58.8487670" lon="15.1891311"><ele>121.3</ele></trkpt>
      <trkpt lat="58.8492414" lon="15.1902979"><ele>120.8</ele></trkpt>
      <trkpt lat="58.8497191" lon="15.1914613"><ele>120.3</ele></trkpt>
      <trkpt lat="58.8502001" lon="15.1926212"><ele>119.7</ele></trkpt>
      <trkpt lat="58.8506843" lon="15.1937774"><ele>119.2</ele></trkpt>
      <trkpt lat="58.8511717" lon="15.1949299"><ele>118.7</ele></trkpt>
      <trkpt lat="58.8516622" lon="15.1960785"><ele>118.2</ele></trkpt>
      <trkpt lat="58.8521558" lon="15.1972232"><ele>117.7</ele></trkpt>
      <trkpt lat="58.8526524" lon="15.1983638"><ele>117.2</ele></trkpt>
      <trkpt lat="58.8531519" lon="15.1995002"><ele>116.7</ele></trkpt>
      <trkpt lat="58.8536543" lon="15.2006324"><ele>116.3</ele></trkpt>
      <trkpt lat="58.8541596" lon="15.2017603"><ele>115.8</ele></trkpt>
      <trkpt lat="58.8546677" lon="15.2028836"><ele>115.3</ele></trkpt>
      <trkpt lat="58.8551786" lon="15.2040024"><ele>114.9</ele></trkpt>
      <trkpt lat="58.8556922" lon="15.2051165"><ele>114.4</ele></trkpt>
      <trkpt lat="58.8562086" lon="15.2062258"><ele>114.0</ele></trkpt>
      <trkpt lat="58.8567275" lon="15.2073302"><ele>113.5</ele></trkpt>
      <trkpt lat="58.8572491" lon="15.2084296"><ele>113.1</ele></trkpt>
      <trkpt lat="58.8577733" lon="15.2095239"><ele>112.7</ele></trkpt>
      <trkpt lat="58.8583000" lon="15.2106129"><ele>112.2</ele></trkpt>
      <trkpt lat="58.8588293" lon="15.2116967"><ele>111.8</ele></trkpt>
      <trkpt lat="58.8593610" lon="15.2127750"><ele>111.4</ele></trkpt>
      <trkpt lat="58.8598953" lon="15.2138478"><ele>111.0</ele></trkpt>
      <trkpt lat="58.8604320" lon="15.2149150"><ele>110.6</ele></trkpt>
      <trkpt lat="58.8609711" lon="15.2159764"><ele>110.2</ele></trkpt>
      <trkpt lat="58.8615126" lon="15.2170320"><ele>109.8</ele></trkpt>
      <trkpt lat="58.8620565" lon="15.2180817"><ele>109.4</ele></trkpt>
      <trkpt lat="58.8626028" lon="15.2191253"><ele>109.1</ele></trkpt>
      <trkpt lat="58.8631514" lon="15.2201627"><ele>108.7</ele></trkpt>
      <trkpt lat="58.8637024" lon="15.2211939"><ele>108.3</ele></trkpt>
      <trkpt lat="58.8642557" lon="15.2222188"><ele>108.0</ele></trkpt>
      <trkpt lat="58.8648113" lon="15.2232372"><ele>107.6</ele></trkpt>
      <trkpt lat="58.8653693" lon="15.2242490"><ele>107.3</ele></trkpt>
      <trkpt lat="58.8659296" lon="15.2252542"><ele>106.9</ele></trkpt>
      <trkpt lat="58.8664922" lon="15.2262526"><ele>106.6</ele></trkpt>
      <trkpt lat="58.8670571" lon="15.2272442"><ele>106.2</ele></trkpt>
      <trkpt lat="58.8676244" lon="15.2282288"><ele>105.9</ele></trkpt>
      <trkpt lat="58.8681939" lon="15.2292064"><ele>105.6</ele></trkpt>
      <trkpt lat="58.8687658" lon="15.2301769"><ele>105.3</ele></trkpt>
      <trkpt lat="58.8693400" lon="15.2311401"><ele>105.0</ele></trkpt>
      <trkpt lat="58.8699165" lon="15.2320959"><ele>104.6</ele></trkpt>
      <trkpt lat="58.8704954" lon="15.2330444"><ele>104.3</ele></trkpt>
      <trkpt lat="58.8710766" lon="15.2339853"><ele>104.0</ele></trkpt>
      <trkpt lat="58.8716602" lon="15.2349187"><ele>103.7</ele></trkpt>
      <trkpt lat="58.8722462" lon="15.2358443"><ele>103.5</ele></trkpt>
      <trkpt lat="58.8728346" lon="15.2367621"><ele>103.2</ele></trkpt>
      <trkpt lat="58.8734254" lon="15.2376721"><ele>102.9</ele></trkpt>
      <trkpt lat="58.8740186" lon="15.2385741"><ele>102.6</ele></trkpt>
      <trkpt lat="58.8746142" lon="15.2394681"><ele>102.4</ele></trkpt>
      <trkpt lat="58.8752123" lon="15.2403540"><ele>102.1</ele></trkpt>
      <trkpt lat="58.8758129" lon="15.2412316"><ele>101.8</ele></trkpt>
      <trkpt lat="58.8764160" lon="15.2421009"><ele>101.6</ele></trkpt>
      <trkpt lat="58.8770217" lon="15.2429619"><ele>101.3</ele></trkpt>
      <trkpt lat="58.8776298" lon="15.2438144"><ele>101.1</ele></trkpt>
      <trkpt lat="58.8782406" lon="15.2446584"><ele>100.8</ele></trkpt>
      <trkpt lat="58.8788540" lon="15.2454938"><ele>100.6</ele></trkpt>
      <trkpt lat="58.8794700" lon="15.2463205"><ele>100.4</ele></trkpt>
      <trkpt lat="58.8800886" lon="15.2471384"><ele>100.1</ele></trkpt>
      <trkpt lat="58.8807099" lon="15.2479476"><ele>99.9</ele></trkpt>
      <trkpt lat="58.8813340" lon="15.2487478"><ele>99.7</ele></trkpt>
      <trkpt lat="58.8819607" lon="15.2495390"><ele>99.5</ele></trkpt>
      <trkpt lat="58.8825903" lon="15.2503212"><ele>99.2</ele></trkpt>
      <trkpt lat="58.8832226" lon="15.2510944"><ele>99.0</ele></trkpt>
      <trkpt lat="58.8838577" lon="15.2518583"><ele>98.8</ele></trkpt>
      <trkpt lat="58.8844957" lon="15.2526131"><ele>98.6</ele></trkpt>
      <trkpt lat="58.8851366" lon="15.2533585"><ele>98.4</ele></trkpt>
      <trkpt lat="58.8857804" lon="15.2540946"><ele>98.2</ele></trkpt>
      <trkpt lat="58.8864272" lon="15.2548213"><ele>98.0</ele></trkpt>
      <trkpt lat="58.8870769" lon="15.2555385"><ele>97.9</ele></trkpt>
      <trkpt lat="58.8877296" lon="15.2562462"><ele>97.7</ele></trkpt>
      <trkpt lat="58.8883853" lon="15.2569444"><ele>97.5</ele></trkpt>
      <trkpt lat="58.8890440" lon="15.2576329"><ele>97.3</ele></trkpt>
      <trkpt lat="58.8897059" lon="15.2583118"><ele>97.2</ele></trkpt>
      <trkpt lat="58.8903709" lon="15.2589809"><ele>97.0</ele></trkpt>
      <trkpt lat="58.8910390" lon="15.2596403"><ele>96.8</ele></trkpt>
      <trkpt lat="58.8917102" lon="15.2602899"><ele>96.7</ele></trkpt>
      <trkpt lat="58.8923846" lon="15.2609296"><ele>96.5</ele></trkpt>
      <trkpt lat="58.8930623" lon="15.2615594"><ele>96.3</ele></trkpt>
      <trkpt lat="58.8937432" lon="15.2621793"><ele>96.2</ele></trkpt>
      <trkpt lat="58.8944273" lon="15.2627893"><ele>96.0</ele></trkpt>
      <trkpt lat="58.8951147" lon="15.2633892"><ele>95.9</ele></trkpt>
      <trkpt lat="58.8958054" lon="15.2639791"><ele>95.7</ele></trkpt>
      <trkpt lat="58.8964994" lon="15.2645590"><ele>95.6</ele></trkpt>
      <trkpt lat="58.8971968" lon="15.2651287"><ele>95.5</ele></trkpt>
      <trkpt lat="58.8978975" lon="15.2656884"><ele>95.3</ele></trkpt>
      <trkpt lat="58.8986015" lon="15.2662378"><ele>95.2</ele></trkpt>
      <trkpt lat="58.8993090" lon="15.2667771"><ele>95.1</ele></trkpt>
      <trkpt lat="58.9000198" lon="15.2673062"><ele>94.9</ele></trkpt>
      <trkpt lat="58.9007341" lon="15.2678251"><ele>94.8</ele></trkpt>
      <trkpt lat="58.9014518" lon="15.2683338"><ele>94.7</ele></trkpt>
      <trkpt lat="58.9021728" lon="15.2688322"><ele>94.6</ele></trkpt>
      <trkpt lat="58.9028973" lon="15.2693203"><ele>94.5</ele></trkpt>
      <trkpt lat="58.9036253" lon="15.2697982"><ele>94.3</ele></trkpt>
      <trkpt lat="58.9043567" lon="15.2702657"><ele>94.2</ele></trkpt>
      <trkpt lat="58.9050915" lon="15.2707230"><ele>94.1</ele></trkpt>
      <trkpt lat="58.9058298" lon="15.2711699"><ele>94.0</ele></trkpt>
      <trkpt lat="58.9065715" lon="15.2716065"><ele>93.9</ele></trkpt>
      <trkpt lat="58.9073166" lon="15.2720328"><ele>93.8</ele></trkpt>
      <trkpt lat="58.9080651" lon="15.2724488"><ele>93.7</ele></trkpt>
      <trkpt lat="58.9088171" lon="15.2728544"><ele>93.6</ele></trkpt>
      <trkpt lat="58.9095725" lon="15.2732497"><ele>93.5</ele></trkpt>
      <trkpt lat="58.9103312" lon="15.2736347"><ele>93.4</ele></trkpt>
      <trkpt lat="58.9110934" lon="15.2740093"><ele>93.3</ele></trkpt>
      <trkpt lat="58.9118589" lon="15.2743736"><ele>93.3</ele></trkpt>
      <trkpt lat="58.9126277" lon="15.2747276"><ele>93.2</ele></trkpt>
      <trkpt lat="58.9133999" lon="15.2750713"><ele>93.1</ele></trkpt>
      <trkpt lat="58.9141754" lon="15.2754047"><ele>93.0</ele></trkpt>
      <trkpt lat="58.9149541" lon="15.2757279"><ele>92.9</ele></trkpt>
      <trkpt lat="58.9157361" lon="15.2760407"><ele>92.8</ele></trkpt>
      <trkpt lat="58.9165213" lon="15.2763433"><ele>92.8</ele></trkpt>
      <trkpt lat="58.9173097" lon="15.2766357"><ele>92.7</ele></trkpt>
      <trkpt lat="58.9181013" lon="15.2769178"><ele>92.6</ele></trkpt>
      <trkpt lat="58.9188959" lon="15.2771898"><ele>92.5</ele></trkpt>
      <trkpt lat="58.9196937" lon="15.2774515"><ele>92.5</ele></trkpt>
      <trkpt lat="58.9204945" lon="15.2777031"><ele>92.4</ele></trkpt>
      <trkpt lat="58.9212983" lon="15.2779446"><ele>92.3</ele></trkpt>
      <trkpt lat="58.9221050" lon="15.2781759"><ele>92.3</ele></trkpt>
      <trkpt lat="58.9229146" lon="15.2783972"><ele>92.2</ele></trkpt>
      <trkpt lat="58.9237271" lon="15.2786083"><ele>92.2</ele></trkpt>
      <trkpt lat="58.9245424" lon="15.2788095"><ele>92.1</ele></trkpt>
      <trkpt lat="58.9253605" lon="15.2790007"><ele>92.0</ele></trkpt>
      <trkpt lat="58.9261812" lon="15.2791818"><ele>92.0</ele></trkpt>
      <trkpt lat="58.9270046" lon="15.2793531"><ele>91.9</ele></trkpt>
      <trkpt lat="58.9278306" lon="15.2795144"><ele>91.9</ele></trkpt>
      <trkpt lat="58.9286590" lon="15.2796659"><ele>91.8</ele></trkpt>
      <trkpt lat="58.9294900" lon="15.2798075"><ele>91.8</ele></trkpt>
      <trkpt lat="58.9303233" lon="15.2799393"><ele>91.7</ele></trkpt>
      <trkpt lat="58.9311589" lon="15.2800614"><ele>91.7</ele></trkpt>
      <trkpt lat="58.9319968" lon="15.2801738"><ele>91.6</ele></trkpt>
      <trkpt lat="58.9328368" lon="15.2802764"><ele>91.6</ele></trkpt>
      <trkpt lat="58.9336790" lon="15.2803694"><ele>91.5</ele></trkpt>
      <trkpt lat="58.9345232" lon="15.2804529"><ele>91.5</ele></trkpt>
      <trkpt lat="58.9353693" lon="15.2805267"><ele>91.4</ele></trkpt>
      <trkpt lat="58.9362174" lon="15.2805911"><ele>91.4</ele></trkpt>
      <trkpt lat="58.9370672" lon="15.2806459"><ele>91.4</ele></trkpt>
      <trkpt lat="58.9379187" lon="15.2806914"><ele>91.3</ele></trkpt>
      <trkpt lat="58.9387719" lon="15.2807274"><ele>91.3</ele></trkpt>
      <trkpt lat="58.9396266" lon="15.2807542"><ele>91.2</ele></trkpt>
      <trkpt lat="58.9404827" lon="15.2807716"><ele>91.2</ele></trkpt>
      <trkpt lat="58.9413403" lon="15.2807798"><ele>91.2</ele></trkpt>
      <trkpt lat="58.9421991" lon="15.2807788"><ele>91.1</ele></trkpt>
      <trkpt lat="58.9430591" lon="15.2807687"><ele>91.1</ele></trkpt>
      <trkpt lat="58.9439202" lon="15.2807494"><ele>91.1</ele></trkpt>
      <trkpt lat="58.9447824" lon="15.2807211"><ele>91.0</ele></trkpt>
      <trkpt lat="58.9456454" lon="15.2806839"><ele>91.0</ele></trkpt>
      <trkpt lat="58.9465093" lon="15.2806376"><ele>91.0</ele></trkpt>
      <trkpt lat="58.9473739" lon="15.2805825"><ele>90.9</ele></trkpt>
      <trkpt lat="58.9482392" lon="15.2805185"><ele>90.9</ele></trkpt>
      <trkpt lat="58.9491050" lon="15.2804458"><ele>90.9</ele></trkpt>
      <trkpt lat="58.9499712" lon="15.2803643"><ele>90.8</ele></trkpt>
    </trkseg>
  </trk>
</gpx>
